IRIDIUM 921 [-]         
1 24873U 97034E   23296.80757144  .00018217  00000+0  69009-3 0  9990
2 24873  86.3887  44.2755 0006705  78.7373 281.4626 15.26772001438832
IRIDIUM 26 [-]          
1 24903U 97043A   23296.88808553  .00000557  00000+0  18491-3 0  9990
2 24903  86.4010   3.3222 0001995  90.8795 269.2630 14.36051929370270
IRIDIUM 22 [-]          
1 24907U 97043E   23296.90104501  .00000554  00000+0  18789-3 0  9996
2 24907  86.4016   6.3633 0002220  92.0907 268.0544 14.34959379370376
DUMMY MASS 1 [-]        
1 24925U 97048A   23296.83152318  .00000793  00000+0  87748-4 0  9999
2 24925  86.3361  53.6037 0008986 112.8411 247.3763 14.85889360415659
DUMMY MASS 2 [-]        
1 24926U 97048B   23296.82979362  .00000802  00000+0  89303-4 0  9995
2 24926  86.3358  55.1062 0009604 121.9752 238.2407 14.85650491415686
IRIDIUM 29 [-]          
1 24944U 97051A   23296.83964790  .00000495  00000+0  16565-3 0  9996
2 24944  86.4000  36.3537 0002359  89.9420 270.2046 14.35415588366832
IRIDIUM 33 [-]          
1 24946U 97051C   23296.79052145  .00000478  00000+0  16397-3 0  9999
2 24946  86.3916  35.6491 0006114 234.3544 125.7083 14.34153624366380
IRIDIUM 28 [-]          
1 24948U 97051E   23296.79082887  .00000666  00000+0  22093-3 0  9996
2 24948  86.4008  34.2370 0001734  95.9270 264.2125 14.36353978367345
